{
    "links": {
        "self": "http://www.neowsapp.com/rest/v1/neo/3892744?api_key=iIulBulltgU6a56xZRHN4H3l9WmuAYTsLGpBGhQ2"
    },
    "id": "3892744",
    "neo_reference_id": "3892744",
    "name": "(2019 VK4)",
    "designation": "2019 VK4",
    "nasa_jpl_url": "http://ssd.jpl.nasa.gov/sbdb.cgi?sstr=3892744",
    "absolute_magnitude_h": 26.7,
    "estimated_diameter": {
        "kilometers": {
            "estimated_diameter_min": 0.0121494041,
            "estimated_diameter_max": 0.0271668934
        },
        "meters": {
            "estimated_diameter_min": 12.14940408,
            "estimated_diameter_max": 27.1668934089
        },
        "miles": {
            "estimated_diameter_min": 0.0075492874,
            "estimated_diameter_max": 0.0168807197
        },
        "feet": {
            "estimated_diameter_min": 39.8602508817,
            "estimated_diameter_max": 89.1302305717
        }
    },
    "is_potentially_hazardous_asteroid": false,
    "close_approach_data": [
        {
            "close_approach_date": "2019-11-10",
            "close_approach_date_full": "2019-Nov-10 11:54",
            "epoch_date_close_approach": 1573386840000,
            "relative_velocity": {
                "kilometers_per_second": "13.6702162511",
                "kilometers_per_hour": "49212.7785038696",
                "miles_per_hour": "30578.9067320294"
            },
            "miss_distance": {
                "astronomical": "0.0277571567",
                "lunar": "10.7975339563",
                "kilometers": "4152411.519576229",
                "miles": "2580188.8733168002"
            },
            "orbiting_body": "Earth"
        },
        {
            "close_approach_date": "2027-08-03",
            "close_approach_date_full": "2027-Aug-03 21:47",
            "epoch_date_close_approach": 1817329620000,
            "relative_velocity": {
                "kilometers_per_second": "17.7217457213",
                "kilometers_per_hour": "63798.2845965821",
                "miles_per_hour": "39641.7730039151"
            },
            "miss_distance": {
                "astronomical": "0.0991273281",
                "lunar": "38.5605306309",
                "kilometers": "14829237.142551147",
                "miles": "9214460.6801619486"
            },
            "orbiting_body": "Mars"
        },
        {
            "close_approach_date": "2080-10-29",
            "close_approach_date_full": "2080-Oct-29 14:43",
            "epoch_date_close_approach": 3497438580000,
            "relative_velocity": {
                "kilometers_per_second": "18.6677577636",
                "kilometers_per_hour": "67203.9279491141",
                "miles_per_hour": "41757.9073414926"
            },
            "miss_distance": {
                "astronomical": "0.162195607",
                "lunar": "63.094091123",
                "kilometers": "24264117.33055709",
                "miles": "15077023.378344242"
            },
            "orbiting_body": "Earth"
        },
        {
            "close_approach_date": "2158-10-30",
            "close_approach_date_full": "2158-Oct-30 01:31",
            "epoch_date_close_approach": 5958840660000,
            "relative_velocity": {
                "kilometers_per_second": "19.5996974821",
                "kilometers_per_hour": "70558.9109355395",
                "miles_per_hour": "43842.5632976967"
            },
            "miss_distance": {
                "astronomical": "0.1960448521",
                "lunar": "76.2614474669",
                "kilometers": "29327892.298625027",
                "miles": "18223507.2391062926"
            },
            "orbiting_body": "Earth"
        },
        {
            "close_approach_date": "2159-04-02",
            "close_approach_date_full": "2159-Apr-02 05:05",
            "epoch_date_close_approach": 5972159100000,
            "relative_velocity": {
                "kilometers_per_second": "17.3436157126",
                "kilometers_per_hour": "62437.0165651904",
                "miles_per_hour": "38795.9339874096"
            },
            "miss_distance": {
                "astronomical": "0.0820011632",
                "lunar": "31.8984524848",
                "kilometers": "12267199.352242384",
                "miles": "7622484.2181935392"
            },
            "orbiting_body": "Mars"
        }
    ],
    "orbital_data": {
        "orbit_id": "3",
        "orbit_determination_date": "2019-11-22 04:56:17",
        "first_observation_date": "2019-10-27",
        "last_observation_date": "2019-11-07",
        "data_arc_in_days": 11,
        "observations_used": 21,
        "orbit_uncertainty": "7",
        "minimum_orbit_intersection": ".0262549",
        "jupiter_tisserand_invariant": "3.844",
        "epoch_osculation": "2459000.5",
        "eccentricity": ".5630054659639837",
        "semi_major_axis": "1.810782252143204",
        "inclination": "5.851316316637858",
        "ascending_node_longitude": "32.23152134272812",
        "orbital_period": "890.0159110649408",
        "perihelion_distance": ".7913019465160077",
        "perihelion_argument": "79.1673954895253",
        "aphelion_distance": "2.830262557770401",
        "perihelion_time": "2458841.178984539383",
        "mean_anomaly": "64.44330360026257",
        "mean_motion": ".4044871507625578",
        "equinox": "J2000",
        "orbit_class": {
            "orbit_class_type": "APO",
            "orbit_class_description": "Near-Earth asteroid orbits which cross the Earth’s orbit similar to that of 1862 Apollo",
            "orbit_class_range": "a (semi-major axis) > 1.0 AU; q (perihelion) < 1.017 AU"
        }
    },
    "is_sentry_object": false
}